NORAD_CAT_ID,OBJECT_NAME,OBJECT_TYPE,EPOCH,MEAN_MOTION,ECCENTRICITY,INCLINATION,RA_OF_ASC_NODE,ARG_OF_PERICENTER,MEAN_ANOMALY,BSTAR,MEAN_MOTION_DOT,MEAN_MOTION_DDOT,TLE_LINE0,TLE_LINE1,TLE_LINE2,SEMIMAJOR_AXIS,PERIOD,APOGEE,PERIGEE,DECAYED
49151.0,STARLINK-3102,PAYLOAD,2021-10-31 14:00:01,15.69736717,0.0004126,70.0006,353.4561,295.7577,358.8951,0.00050901,0.00060971,0.0,0 STARLINK-3102,1 49151U 21082X   21304.58334491  .00060971  00000-0  50901-3 0  9991,2 49151  70.0006 353.4561 0004126 295.7577 358.8951 15.69736717  3696,6737.7869999999975,91.735,362.432,356.872,0.0
49151.0,STARLINK-3102,PAYLOAD,2021-10-31 20:00:01,15.69804187,0.000404,70.0003,352.7535,292.7087,334.2909,-0.0010192,-0.00120446,0.0,0 STARLINK-3102,1 49151U 21082X   21304.83334491 -.00120446  00000-0 -10192-2 0  9992,2 49151  70.0003 352.7535 0004040 292.7087 334.2909 15.69804187  8800,6737.594,91.731,362.181,356.737,0.0
49151.0,STARLINK-3102,PAYLOAD,2021-10-31 22:00:01,15.6974445,0.0004052,70.0004,352.5192,290.3916,87.4788,-0.00017423,-0.00020959,0.0,0 STARLINK-3102,1 49151U 21082X   21304.91668981 -.00020959  00000-0 -17423-3 0  9998,2 49151  70.0004 352.5192 0004052 290.3916  87.4788 15.69744450  3674,6737.765,91.735,362.36,356.9,0.0
49151.0,STARLINK-3102,PAYLOAD,2021-11-01 04:00:00,15.69743237,0.0004148,70.0004,351.8169,289.3245,60.8127,0.00016733,0.00019808,0.0,0 STARLINK-3102,1 49151U 21082X   21305.16667824  .00019808  00000-0  16733-3 0  9993,2 49151  70.0004 351.8169 0004148 289.3245  60.8127 15.69743237  8858,6737.769,91.735,362.42800000000005,356.839,0.0
49151.0,STARLINK-3102,PAYLOAD,2021-11-01 14:00:01,15.69737984,0.0004317,69.9998,350.6455,294.8501,249.2043,0.00064986,0.00078068,0.0,0 STARLINK-3102,1 49151U 21082X   21305.58334491  .00078068  00000-0  64986-3 0  9996,2 49151  69.9998 350.6455 0004317 294.8501 249.2043 15.69737984  3684,6737.784000000002,91.735,362.557,356.74,0.0
49151.0,STARLINK-3102,PAYLOAD,2021-11-01 22:00:00,15.69783096,0.0004031,69.9999,349.7085,291.5886,335.6074,-0.0006843999999999,-0.00081254,0.0,0 STARLINK-3102,1 49151U 21082X   21305.91667824 -.00081254  00000-0 -68440-3 0  9994,2 49151  69.9999 349.7085 0004031 291.5886 335.6074 15.69783096  3674,6737.655,91.732,362.236,356.80400000000014,0.0
49151.0,STARLINK-3102,PAYLOAD,2021-11-02 04:00:00,15.69744925,0.0003786,70.0001,349.0058,290.9161,308.6399,-0.00054411,-0.00064663,0.0,0 STARLINK-3102,1 49151U 21082X   21306.16667824 -.00064663  00000-0 -54411-3 0  9990,2 49151  70.0001 349.0058 0003786 290.9161 308.6399 15.69744925  9011,6737.764,91.735,362.18,357.07800000000015,0.0
49151.0,STARLINK-3102,PAYLOAD,2021-11-02 14:00:01,15.69678232,0.000387,69.9999,347.8343,297.7376,135.6605,0.00049518,0.0005915,0.0,0 STARLINK-3102,1 49151U 21082X   21306.58334491  .00059150  00000-0  49518-3 0  9992,2 49151  69.9999 347.8343 0003870 297.7376 135.6605 15.69678232  3697,6737.955,91.739,362.427,357.212,0.0
49151.0,STARLINK-3102,PAYLOAD,2021-11-02 20:00:01,15.69713095,0.0003713,69.9997,347.1318,294.4949,111.2763,0.00012392,0.00014585,0.0,0 STARLINK-3102,1 49151U 21082X   21306.83335648  .00014585  00000-0  12392-3 0  9998,2 49151  69.9997 347.1318 0003713 294.4949 111.2763 15.69713095  9111,6737.855,91.737,362.222,357.218,0.0
49151.0,STARLINK-3102,PAYLOAD,2021-11-02 22:00:00,15.69686638,0.0003718,69.9998,346.8976,293.0489,223.4366,0.00070778,0.00084925,0.0,0 STARLINK-3102,1 49151U 21082X   21306.91667824  .00084925  00000-0  70778-3 0  9998,2 49151  69.9998 346.8976 0003718 293.0489 223.4366 15.69686638  3679,6737.931,91.738,362.301,357.29,0.0
49151.0,STARLINK-3102,PAYLOAD,2021-11-03 12:00:00,15.6972916,0.0003906,69.9993,345.2581,297.7702,274.1484,0.00054743,0.00065602,0.0,0 STARLINK-3102,1 49151U 21082X   21307.50001157  .00065602  00000-0  54743-3 0  9990,2 49151  69.9993 345.2581 0003906 297.7702 274.1484 15.69729160  9215,6737.809,91.736,362.306,357.042,0.0
49151.0,STARLINK-3102,PAYLOAD,2021-11-03 14:00:01,15.6974582,0.0003984,69.999,345.0238,297.673,25.023000000000003,0.00037702,0.00045036,0.0,0 STARLINK-3102,1 49151U 21082X   21307.58334491  .00045036  00000-0  37702-3 0  9993,2 49151  69.9990 345.0238 0003984 297.6730  25.0230 15.69745820  3694,6737.761,91.735,362.311,356.94199999999995,0.0
49151.0,STARLINK-3102,PAYLOAD,2021-11-03 20:00:01,15.69787272,0.0003891,69.9989,344.3209,293.5856,1.5286,-0.0007913999999999,-0.00093798,0.0,0 STARLINK-3102,1 49151U 21082X   21307.83335648 -.00093798  00000-0 -79140-3 0  9998,2 49151  69.9989 344.3209 0003891 293.5856   1.5286 15.69787272  9270,6737.643,91.732,362.129,356.886,0.0
49151.0,STARLINK-3102,PAYLOAD,2021-11-03 22:00:00,15.69731488,0.0003924,69.999,344.0866,291.0783,114.7725,2.7819e-05,3.108e-05,0.0,0 STARLINK-3102,1 49151U 21082X   21307.91667824  .00003108  00000-0  27819-4 0  9992,2 49151  69.9990 344.0866 0003924 291.0783 114.7725 15.69731488  3689,6737.802,91.735,362.311,357.023,0.0
49151.0,STARLINK-3102,PAYLOAD,2021-11-04 04:00:00,15.69746763,0.0004022,69.9991,343.3838,290.4019,87.7723,-3.8332e-05,-4.786e-05,0.0,0 STARLINK-3102,1 49151U 21082X   21308.16667824 -.00004786  00000-0 -38332-4 0  9997,2 49151  69.9991 343.3838 0004022 290.4019  87.7723 15.69746763  9322,6737.759,91.735,362.333,356.914,0.0
49151.0,STARLINK-3102,PAYLOAD,2021-11-04 14:00:01,15.69754255,0.000414,69.9988,342.2123,295.738,276.3524,0.00047612,0.00057033,0.0,0 STARLINK-3102,1 49151U 21082X   21308.58334491  .00057033  00000-0  47612-3 0  9995,2 49151  69.9988 342.2123 0004140 295.7380 276.3524 15.69754255  3675,6737.736999999999,91.734,362.392,356.81300000000016,0.0
49151.0,STARLINK-3102,PAYLOAD,2021-11-04 20:00:01,15.69813614,0.0003991,69.9988,341.5095,293.189,251.3095,0.00050006,0.00060078,0.0,0 STARLINK-3102,1 49151U 21082X   21308.83334491  .00060078  00000-0  50006-3 0  9997,2 49151  69.9988 341.5095 0003991 293.1890 251.3095 15.69813614  9426,6737.566999999999,91.731,362.121,356.74300000000005,0.0
49151.0,STARLINK-3102,PAYLOAD,2021-11-04 22:00:00,15.69791871,0.0003941,69.9987,341.2754,291.6576,3.6533,0.0011124,0.00134989,0.0,0 STARLINK-3102,1 49151U 21082X   21308.91667824  .00134989  00000-0  11124-2 0  9995,2 49151  69.9987 341.2754 0003941 291.6576   3.6533 15.69791871  3679,6737.629,91.732,362.15,356.839,0.0
49151.0,STARLINK-3102,PAYLOAD,2021-11-05 12:00:00,15.69828703,0.0004243,69.9984,339.6352,295.0863,55.8946,-0.0010555,-0.00124798,0.0,0 STARLINK-3102,1 49151U 21082X   21309.50001157 -.00124798  00000-0 -10555-2 0  9998,2 49151  69.9984 339.6352 0004243 295.0863  55.8946 15.69828703  9537,6737.524,91.73,362.24800000000016,356.53,0.0
49151.0,STARLINK-3102,PAYLOAD,2021-11-05 14:00:01,15.69822593,0.0004258,69.9981,339.4009,295.3889,166.3918,-0.0014074,-0.00165498,0.0,0 STARLINK-3102,1 49151U 21082X   21309.58334491 -.00165498  00000-0 -14074-2 0  9998,2 49151  69.9981 339.4009 0004258 295.3889 166.3918 15.69822593  3675,6737.542,91.73,362.275,356.538,0.0
49151.0,STARLINK-3102,PAYLOAD,2021-11-05 20:00:01,15.69741042,0.0004064,69.9982,338.6981,291.6054,142.5532,-0.0018918,-0.00220201,0.0,0 STARLINK-3102,1 49151U 21082X   21309.83334491 -.00220201  00000-0 -18918-2 0  9991,2 49151  69.9982 338.6981 0004064 291.6054 142.5532 15.69741042  9587,6737.775,91.735,362.378,356.902,0.0
49151.0,STARLINK-3102,PAYLOAD,2021-11-05 22:00:00,15.69674366,0.0004026,69.9981,338.4637,290.6826,254.2586,-0.001287,-0.00150686,0.0,0 STARLINK-3102,1 49151U 21082X   21309.91667824 -.00150686  00000-0 -12870-2 0  9999,2 49151  69.9981 338.4637 0004026 290.6826 254.2586 15.69674366  3720,6737.965999999999,91.739,362.543,357.11800000000005,0.0
49151.0,STARLINK-3102,PAYLOAD,2021-11-06 04:00:01,15.69535382,0.0003941,69.9984,337.7609,290.6941,226.5433,0.00042739,0.00050672,0.0,0 STARLINK-3102,1 49151U 21082X   21310.16668981  .00050672  00000-0  42739-3 0  9993,2 49151  69.9984 337.7609 0003941 290.6941 226.5433 15.69535382  9630,6738.363,91.747,362.884,357.5730000000001,0.0
49151.0,STARLINK-3102,PAYLOAD,2021-11-06 08:00:03,15.69517163,0.0003956,69.9982,337.2923,293.8329,84.9183,0.0012812,0.00154106,0.0,0 STARLINK-3102,1 49151U 21082X   21310.33336806  .00154106  00000-0  12812-2 0  9995,2 49151  69.9982 337.2923 0003956 293.8329  84.9183 15.69517163  3700,6738.416,91.748,362.946,357.615,0.0
49151.0,STARLINK-3102,PAYLOAD,2021-11-06 12:00:00,15.69555677,0.0004056,69.9984,336.8238,296.498,303.567,0.0016994,0.00206088,0.0,0 STARLINK-3102,1 49151U 21082X   21310.50001157  .00206088  00000-0  16994-2 0  9994,2 49151  69.9984 336.8238 0004056 296.4980 303.5670 15.69555677  9697,6738.305,91.746,362.903,357.43699999999984,0.0
49151.0,STARLINK-3102,PAYLOAD,2021-11-06 16:00:00,15.69659461,0.0003987,69.998,336.3552,295.7889,165.7348,0.00066655,0.00079831,0.0,0 STARLINK-3102,1 49151U 21082X   21310.66667824  .00079831  00000-0  66655-3 0  9994,2 49151  69.9980 336.3552 0003987 295.7889 165.7348 15.69659461  3655,6738.0080000000025,91.74,362.56,357.18699999999984,0.0
49151.0,STARLINK-3102,PAYLOAD,2021-11-06 20:00:01,15.6966494,0.0003869,69.9983,335.8869,293.035,30.07800000000001,0.001176,0.00142092,0.0,0 STARLINK-3102,1 49151U 21082X   21310.83335648  .00142092  00000-0  11760-2 0  9995,2 49151  69.9983 335.8869 0003869 293.0350  30.0780 15.69664940  9744,6737.993,91.739,362.465,357.251,0.0
49151.0,STARLINK-3102,PAYLOAD,2021-11-07 12:00:02,15.69777868,0.0004178999999999,69.9982,334.0127,295.1851,194.205,0.00059354,0.00071343,0.0,0 STARLINK-3102,1 49151U 21082X   21311.50002315  .00071343  00000-0  59354-3 0  9994,2 49151  69.9982 334.0127 0004179 295.1851 194.2050 15.69777868  9843,6737.67,91.733,362.35,356.719,0.0
49151.0,STARLINK-3102,PAYLOAD,2021-11-07 14:00:01,15.69811195,0.000418,69.9978,333.7784,294.7791,305.3335,0.00010995,0.00012969,0.0,0 STARLINK-3102,1 49151U 21082X   21311.58334491  .00012969  00000-0  10995-3 0  9992,2 49151  69.9978 333.7784 0004180 294.7791 305.3335 15.69811195  3660,6737.574000000001,91.731,362.255,356.62300000000016,0.0
